{
  "type": "FeatureCollection",
  "features": [
    {
      "type": "Feature",
      "properties": {
        "norad_id": 30662,
        "name": "FENGYUN 1C DEB",
        "group": "fengyun-1c-debris",
        "lat": -29.678018965610445,
        "lon": -150.16139762361286,
        "alt_km": 820.9491811619391,
        "timestamp": "2025-12-04T23:34:06.000460+00:00",
        "meta_object_name": "FENGYUN 1C DEB",
        "meta_object_id": "1999-025APU",
        "meta_epoch": "2025-12-03T02:48:18.846720",
        "meta_mean_motion": 14.22256685,
        "meta_eccentricity": 0.00325542,
        "meta_inclination": 99.0531,
        "meta_ra_of_asc_node": 33.1374,
        "meta_arg_of_pericenter": 299.1565,
        "meta_mean_anomaly": 86.7895,
        "meta_ephemeris_type": 0,
        "meta_classification_type": "U",
        "meta_norad_cat_id": 30662,
        "meta_element_set_no": 999,
        "meta_rev_at_epoch": 96502,
        "meta_bstar": 0.0019182856,
        "meta_mean_motion_dot": 4.237e-05,
        "meta_mean_motion_ddot": 0,
        "tle_line1": "1 30662U 99025APU 25337.11688480  .00004237  00000+0  19183-2 0  9997",
        "tle_line2": "2 30662  99.0531  33.1374 0032554 299.1565  86.7895 14.22256685965029"
      },
      "geometry": {
        "type": "Point",
        "coordinates": [
          -150.16139762361286,
          -29.678018965610445
        ]
      }
    },
    {
      "type": "Feature",
      "properties": {
        "norad_id": 30663,
        "name": "FENGYUN 1C DEB",
        "group": "fengyun-1c-debris",
        "lat": -26.786094246316193,
        "lon": -98.52997395444903,
        "alt_km": 1666.9172471913598,
        "timestamp": "2025-12-04T23:34:06.000470+00:00",
        "meta_object_name": "FENGYUN 1C DEB",
        "meta_object_id": "1999-025APV",
        "meta_epoch": "2025-12-04T05:34:25.506624",
        "meta_mean_motion": 13.23090027,
        "meta_eccentricity": 0.0647475,
        "meta_inclination": 99.3021,
        "meta_ra_of_asc_node": 256.0506,
        "meta_arg_of_pericenter": 157.3048,
        "meta_mean_anomaly": 205.8133,
        "meta_ephemeris_type": 0,
        "meta_classification_type": "U",
        "meta_norad_cat_id": 30663,
        "meta_element_set_no": 999,
        "meta_rev_at_epoch": 88935,
        "meta_bstar": 0.0026759,
        "meta_mean_motion_dot": 3.448e-05,
        "meta_mean_motion_ddot": 0,
        "tle_line1": "1 30663U 99025APV 25338.23223966  .00003448  00000+0  26759-2 0  9996",
        "tle_line2": "2 30663  99.3021 256.0506 0647475 157.3048 205.8133 13.23090027889351"
      },
      "geometry": {
        "type": "Point",
        "coordinates": [
          -98.52997395444903,
          -26.786094246316193
        ]
      }
    },
    {
      "type": "Feature",
      "properties": {
        "norad_id": 30665,
        "name": "FENGYUN 1C DEB",
        "group": "fengyun-1c-debris",
        "lat": -28.852170046863474,
        "lon": 125.24424556032749,
        "alt_km": 810.1748049336038,
        "timestamp": "2025-12-04T23:34:06.000500+00:00",
        "meta_object_name": "FENGYUN 1C DEB",
        "meta_object_id": "1999-025APX",
        "meta_epoch": "2025-12-03T09:53:30.923808",
        "meta_mean_motion": 14.12252026,
        "meta_eccentricity": 0.00678337,
        "meta_inclination": 99.2075,
        "meta_ra_of_asc_node": 308.7594,
        "meta_arg_of_pericenter": 229.226,
        "meta_mean_anomaly": 283.2134,
        "meta_ephemeris_type": 0,
        "meta_classification_type": "U",
        "meta_norad_cat_id": 30665,
        "meta_element_set_no": 999,
        "meta_rev_at_epoch": 95838,
        "meta_bstar": 0.002235862,
        "meta_mean_motion_dot": 4.157e-05,
        "meta_mean_motion_ddot": 0,
        "tle_line1": "1 30665U 99025APX 25337.41216347  .00004157  00000+0  22359-2 0  9992",
        "tle_line2": "2 30665  99.2075 308.7594 0067833 229.2260 283.2134 14.12252026958381"
      },
      "geometry": {
        "type": "Point",
        "coordinates": [
          125.24424556032749,
          -28.852170046863474
        ]
      }
    },
    {
      "type": "Feature",
      "properties": {
        "norad_id": 30666,
        "name": "FENGYUN 1C DEB",
        "group": "fengyun-1c-debris",
        "lat": -65.78992480062392,
        "lon": -16.950309636457277,
        "alt_km": 918.7398086291296,
        "timestamp": "2025-12-04T23:34:06.000528+00:00",
        "meta_object_name": "FENGYUN 1C DEB",
        "meta_object_id": "1999-025APY",
        "meta_epoch": "2025-12-04T10:54:55.831104",
        "meta_mean_motion": 14.02548328,
        "meta_eccentricity": 0.0060743,
        "meta_inclination": 98.8224,
        "meta_ra_of_asc_node": 322.3324,
        "meta_arg_of_pericenter": 166.8655,
        "meta_mean_anomaly": 344.8025,
        "meta_ephemeris_type": 0,
        "meta_classification_type": "U",
        "meta_norad_cat_id": 30666,
        "meta_element_set_no": 999,
        "meta_rev_at_epoch": 95994,
        "meta_bstar": 0.00030735,
        "meta_mean_motion_dot": 4.39e-06,
        "meta_mean_motion_ddot": 0,
        "tle_line1": "1 30666U 99025APY 25338.45481286  .00000439  00000+0  30735-3 0  9991",
        "tle_line2": "2 30666  98.8224 322.3324 0060743 166.8655 344.8025 14.02548328959941"
      },
      "geometry": {
        "type": "Point",
        "coordinates": [
          -16.950309636457277,
          -65.78992480062392
        ]
      }
    },
    {
      "type": "Feature",
      "properties": {
        "norad_id": 30668,
        "name": "FENGYUN 1C DEB",
        "group": "fengyun-1c-debris",
        "lat": -56.834891851969616,
        "lon": 66.14410304560897,
        "alt_km": 811.7166195397676,
        "timestamp": "2025-12-04T23:34:06.000542+00:00",
        "meta_object_name": "FENGYUN 1C DEB",
        "meta_object_id": "1999-025AQA",
        "meta_epoch": "2025-12-03T03:46:19.506144",
        "meta_mean_motion": 14.12223902,
        "meta_eccentricity": 0.00784298,
        "meta_inclination": 99.1324,
        "meta_ra_of_asc_node": 50.0364,
        "meta_arg_of_pericenter": 272.9786,
        "meta_mean_anomaly": 116.1609,
        "meta_ephemeris_type": 0,
        "meta_classification_type": "U",
        "meta_norad_cat_id": 30668,
        "meta_element_set_no": 999,
        "meta_rev_at_epoch": 95920,
        "meta_bstar": 0.0023512126,
        "meta_mean_motion_dot": 4.404e-05,
        "meta_mean_motion_ddot": 0,
        "tle_line1": "1 30668U 99025AQA 25337.15717021  .00004404  00000+0  23512-2 0  9998",
        "tle_line2": "2 30668  99.1324  50.0364 0078429 272.9786 116.1609 14.12223902959207"
      },
      "geometry": {
        "type": "Point",
        "coordinates": [
          66.14410304560897,
          -56.834891851969616
        ]
      }
    },
    {
      "type": "Feature",
      "properties": {
        "norad_id": 30669,
        "name": "FENGYUN 1C DEB",
        "group": "fengyun-1c-debris",
        "lat": -80.71661037416558,
        "lon": 27.697142174390255,
        "alt_km": 858.9689250764577,
        "timestamp": "2025-12-04T23:34:06.000557+00:00",
        "meta_object_name": "FENGYUN 1C DEB",
        "meta_object_id": "1999-025AQB",
        "meta_epoch": "2025-12-04T14:34:39.638208",
        "meta_mean_motion": 14.02681375,
        "meta_eccentricity": 0.0117483,
        "meta_inclination": 98.6336,
        "meta_ra_of_asc_node": 275.6952,
        "meta_arg_of_pericenter": 199.6693,
        "meta_mean_anomaly": 335.0632,
        "meta_ephemeris_type": 0,
        "meta_classification_type": "U",
        "meta_norad_cat_id": 30669,
        "meta_element_set_no": 999,
        "meta_rev_at_epoch": 95339,
        "meta_bstar": 0.0021575,
        "meta_mean_motion_dot": 3.499e-05,
        "meta_mean_motion_ddot": 0,
        "tle_line1": "1 30669U 99025AQB 25338.60740322  .00003499  00000+0  21575-2 0  9990",
        "tle_line2": "2 30669  98.6336 275.6952 0117483 199.6693 335.0632 14.02681375953392"
      },
      "geometry": {
        "type": "Point",
        "coordinates": [
          27.697142174390255,
          -80.71661037416558
        ]
      }
    },
    {
      "type": "Feature",
      "properties": {
        "norad_id": 30670,
        "name": "FENGYUN 1C DEB",
        "group": "fengyun-1c-debris",
        "lat": -3.723969125845534,
        "lon": -156.98638179755406,
        "alt_km": 844.0163096662018,
        "timestamp": "2025-12-04T23:34:06.000567+00:00",
        "meta_object_name": "FENGYUN 1C DEB",
        "meta_object_id": "1999-025AQC",
        "meta_epoch": "2025-12-04T09:42:21.620160",
        "meta_mean_motion": 14.15812692,
        "meta_eccentricity": 0.0040013,
        "meta_inclination": 98.7121,
        "meta_ra_of_asc_node": 23.0208,
        "meta_arg_of_pericenter": 92.9152,
        "meta_mean_anomaly": 27.9591,
        "meta_ephemeris_type": 0,
        "meta_classification_type": "U",
        "meta_norad_cat_id": 30670,
        "meta_element_set_no": 999,
        "meta_rev_at_epoch": 97034,
        "meta_bstar": 0.00018209,
        "meta_mean_motion_dot": 3.18e-06,
        "meta_mean_motion_ddot": 0,
        "tle_line1": "1 30670U 99025AQC 25338.40441690  .00000318  00000+0  18209-3 0  9994",
        "tle_line2": "2 30670  98.7121  23.0208 0040013  92.9152  27.9591 14.15812692970342"
      },
      "geometry": {
        "type": "Point",
        "coordinates": [
          -156.98638179755406,
          -3.723969125845534
        ]
      }
    }
  ]
}